NORAD_CAT_ID,OBJECT_NAME,OBJECT_TYPE,EPOCH,MEAN_MOTION,ECCENTRICITY,INCLINATION,RA_OF_ASC_NODE,ARG_OF_PERICENTER,MEAN_ANOMALY,BSTAR,MEAN_MOTION_DOT,MEAN_MOTION_DDOT,TLE_LINE0,TLE_LINE1,TLE_LINE2,SEMIMAJOR_AXIS,PERIOD,APOGEE,PERIGEE,DECAYED
51147.0,STARLINK-3352,PAYLOAD,2022-03-08 06:00:02,15.48353655,0.0001479,53.2175,37.9683,54.9579,141.0085,-0.013196,-0.00653579,0.0,0 STARLINK-3352,1 51147U 22005AV  22067.25002315 -.00653579  00000-0 -13196-1 0  9990,2 51147  53.2175  37.9683 0001479  54.9579 141.0085 15.48353655  8887,6799.679,93.002,422.549,420.538,0.0
51147.0,STARLINK-3352,PAYLOAD,2022-03-08 14:00:01,15.47890248,0.0001264,53.2173,36.3809,75.7789,178.7989,-0.013533,-0.00658953,0.0,0 STARLINK-3352,1 51147U 22005AV  22067.58334491 -.00658953  00000-0 -13533-1 0  9995,2 51147  53.2173  36.3809 0001264  75.7789 178.7989 15.47890248  8933,6801.036,93.03,423.761,422.041,0.0
51147.0,STARLINK-3352,PAYLOAD,2022-03-08 22:00:00,15.4742109,0.0001205,53.2176,34.7948,78.0523,234.7545,-0.013627,-0.00653196,0.0,0 STARLINK-3352,1 51147U 22005AV  22067.91667824 -.00653196  00000-0 -13627-1 0  9999,2 51147  53.2176  34.7948 0001205  78.0523 234.7545 15.47421090  3705,6802.41,93.058,425.095,423.456,0.0
51147.0,STARLINK-3352,PAYLOAD,2022-03-09 14:00:01,15.46488861,0.0001133,53.2174,31.6287,68.7328,358.8476,-0.014131,-0.00655501,0.0,0 STARLINK-3352,1 51147U 22005AV  22068.58334491 -.00655501  00000-0 -14131-1 0  9997,2 51147  53.2174  31.6287 0001133  68.7328 358.8476 15.46488861  3679,6805.144,93.114,427.78,426.23800000000006,0.0
51147.0,STARLINK-3352,PAYLOAD,2022-03-09 22:00:01,15.46021506,0.0001308,53.2176,30.0459,64.675,59.5167,-0.014318,-0.00653682,0.0,0 STARLINK-3352,1 51147U 22005AV  22068.91668981 -.00653682  00000-0 -14318-1 0  9993,2 51147  53.2176  30.0459 0001308  64.6750  59.5167 15.46021506  9131,6806.515,93.142,429.271,427.49,0.0
51147.0,STARLINK-3352,PAYLOAD,2022-03-10 14:00:01,15.45090836,0.0001313,53.2175,26.886,73.8573,161.6793,-0.0149,-0.00658361,0.0,0 STARLINK-3352,1 51147U 22005AV  22069.58334491 -.00658361  00000-0 -14900-1 0  9999,2 51147  53.2175  26.8860 0001313  73.8573 161.6793 15.45090836  3674,6809.248000000001,93.198,432.007,430.219,0.0
51147.0,STARLINK-3352,PAYLOAD,2022-03-10 22:00:01,15.44622597,0.0001323,53.2177,25.3069,65.2043,225.2616,-0.015043,-0.00654419,0.0,0 STARLINK-3352,1 51147U 22005AV  22069.91668981 -.00654419  00000-0 -15043-1 0  9999,2 51147  53.2177  25.3069 0001323  65.2043 225.2616 15.44622597  3685,6810.624,93.227,433.39,431.588,0.0
51147.0,STARLINK-3352,PAYLOAD,2022-03-11 04:00:00,15.44271975,0.0001341999999999,53.2175,24.1253,70.917,170.2643,-0.01522,-0.00654239,0.0,0 STARLINK-3352,1 51147U 22005AV  22070.16667824 -.00654239  00000-0 -15220-1 0  9990,2 51147  53.2175  24.1253 0001342  70.9170 170.2643 15.44271975  9337,6811.655,93.248,434.434,432.606,0.0
51147.0,STARLINK-3352,PAYLOAD,2022-03-11 14:00:01,15.43689182,0.0001165,53.2176,22.1537,64.0336,334.4147,-0.015547,-0.00662915,0.0,0 STARLINK-3352,1 51147U 22005AV  22070.58334491 -.00662915  00000-0 -15547-1 0  9999,2 51147  53.2176  22.1537 0001165  64.0336 334.4147 15.43689182  3656,6813.369000000002,93.283,436.028,434.441,0.0
51147.0,STARLINK-3352,PAYLOAD,2022-03-11 22:00:00,15.43222123,0.0001333,53.2177,20.5783,55.839,35.7919,-0.015761,-0.00661584,0.0,0 STARLINK-3352,1 51147U 22005AV  22070.91667824 -.00661584  00000-0 -15761-1 0  9994,2 51147  53.2177  20.5783 0001333  55.8390  35.7919 15.43222123  3664,6814.744000000002,93.311,437.517,435.701,0.0
51147.0,STARLINK-3352,PAYLOAD,2022-03-12 06:00:00,15.42753927,0.0001473,53.2176,19.006,54.8336,89.4185,-0.015949,-0.00659146,0.0,0 STARLINK-3352,1 51147U 22005AV  22071.25001157 -.00659146  00000-0 -15949-1 0  9992,2 51147  53.2176  19.0060 0001473  54.8336  89.4185 15.42753927  9508,6816.123000000001,93.34,438.992,436.984,0.0
51147.0,STARLINK-3352,PAYLOAD,2022-03-12 14:00:01,15.42289919,0.0001341,53.2175,17.4313,70.0469,126.2662,-0.016304,-0.00663045,0.0,0 STARLINK-3352,1 51147U 22005AV  22071.58334491 -.00663045  00000-0 -16304-1 0  9997,2 51147  53.2175  17.4313 0001341  70.0469 126.2662 15.42289919  3689,6817.49,93.368,440.269,438.441,0.0
51147.0,STARLINK-3352,PAYLOAD,2022-03-12 22:00:00,15.41822363,0.0001396999999999,53.2176,15.8595,64.818,182.9959,-0.016509,-0.0066106,0.0,0 STARLINK-3352,1 51147U 22005AV  22071.91667824 -.00661060  00000-0 -16509-1 0  9995,2 51147  53.2176  15.8595 0001397  64.8180 182.9959 15.41822363  3689,6818.868,93.396,441.686,439.78,0.0
51147.0,STARLINK-3352,PAYLOAD,2022-03-13 06:00:00,15.41354697,0.0001299,53.2175,14.2904,69.4698,229.2833,-0.016729,-0.00659546,0.0,0 STARLINK-3352,1 51147U 22005AV  22072.25001157 -.00659546  00000-0 -16729-1 0  9994,2 51147  53.2175  14.2904 0001299  69.4698 229.2833 15.41354697  9650,6820.246999999999,93.424,442.99800000000016,441.226,0.0
51147.0,STARLINK-3352,PAYLOAD,2022-03-13 14:00:01,15.40890038,0.0001151,53.2175,12.7191,74.6392,274.4936,-0.017091,-0.00663149,0.0,0 STARLINK-3352,1 51147U 22005AV  22072.58334491 -.00663149  00000-0 -17091-1 0  9997,2 51147  53.2175  12.7191 0001151  74.6392 274.4936 15.40890038  3694,6821.618,93.452,444.268,442.698,0.0
51147.0,STARLINK-3352,PAYLOAD,2022-03-13 22:00:01,15.40424052,0.0001228,53.2175,11.1507,62.0485,336.9666,-0.017375,-0.00663749,0.0,0 STARLINK-3352,1 51147U 22005AV  22072.91668981 -.00663749  00000-0 -17375-1 0  9999,2 51147  53.2175  11.1507 0001228  62.0485 336.9666 15.40424052  3678,6822.994000000002,93.481,445.697,444.021,0.0
51147.0,STARLINK-3352,PAYLOAD,2022-03-14 04:00:00,15.40074028,0.0001171,53.2175,9.9764,79.8222,266.1239,-0.017578,-0.00663734,0.0,0 STARLINK-3352,1 51147U 22005AV  22073.16667824 -.00663734  00000-0 -17578-1 0  9991,2 51147  53.2175   9.9764 0001171  79.8222 266.1239 15.40074028  9793,6824.028,93.502,446.692,445.094,0.0
51147.0,STARLINK-3352,PAYLOAD,2022-03-14 14:00:01,15.39488439,0.000125,53.2175,8.0167,72.5476,64.4237,-0.017796,-0.00659389,0.0,0 STARLINK-3352,1 51147U 22005AV  22073.58335648 -.00659389  00000-0 -17796-1 0  9996,2 51147  53.2175   8.0167 0001250  72.5476  64.4237 15.39488439  3658,6825.7580000000025,93.538,448.476,446.77,0.0
51147.0,STARLINK-3352,PAYLOAD,2022-03-14 20:00:01,15.39139434,0.0001333,53.2174,6.8423,61.3997,21.6621,-0.01803,-0.00660346,0.0,0 STARLINK-3352,1 51147U 22005AV  22073.83334491 -.00660346  00000-0 -18030-1 0  9996,2 51147  53.2174   6.8423 0001333  61.3997  21.6621 15.39139434  3643,6826.79,93.559,449.565,447.745,0.0
51147.0,STARLINK-3352,PAYLOAD,2022-03-15 02:00:01,15.38791061,0.0001281,53.2174,5.6707,59.1634,329.7367,-0.018343,-0.00663876,0.0,0 STARLINK-3352,1 51147U 22005AV  22074.08334491 -.00663876  00000-0 -18343-1 0  9992,2 51147  53.2174   5.6707 0001281  59.1634 329.7367 15.38791061  9936,6827.82,93.58,450.56,448.81,0.0
51147.0,STARLINK-3352,PAYLOAD,2022-03-15 22:00:00,15.37623825,0.0001291,53.2177,1.7629,64.85300000000001,261.2359,-0.019003,-0.00662084,0.0,0 STARLINK-3352,1 51147U 22005AV  22074.91667824 -.00662084  00000-0 -19003-1 0  9997,2 51147  53.2177   1.7629 0001291  64.8530 261.2359 15.37623825  3653,6831.275,93.651,454.022,452.258,0.0
51147.0,STARLINK-3352,PAYLOAD,2022-03-16 04:00:00,15.37272593,0.0001338,53.2176,0.5936,76.0819,194.4798,-0.019148,-0.0065971999999999,0.0,0 STARLINK-3352,1 51147U 22005AV  22075.16667824 -.00659720  00000-0 -19148-1 0  9998,2 51147  53.2176   0.5936 0001338  76.0819 194.4798 15.37272593 10101,6832.316,93.672,455.095,453.266,0.0
51147.0,STARLINK-3352,PAYLOAD,2022-03-16 14:00:01,15.36688801,0.0001190999999999,53.2176,358.642,63.1064,354.2111,-0.019497,-0.00659141,0.0,0 STARLINK-3352,1 51147U 22005AV  22075.58334491 -.00659141  00000-0 -19497-1 0  9999,2 51147  53.2176 358.6420 0001191  63.1064 354.2111 15.36688801  3673,6834.045999999999,93.708,456.725,455.097,0.0
51147.0,STARLINK-3352,PAYLOAD,2022-03-16 20:00:01,15.3634052,0.0001288,53.2178,357.4731,59.9828,300.9659,-0.019779,-0.00661041,0.0,0 STARLINK-3352,1 51147U 22005AV  22075.83334491 -.00661041  00000-0 -19779-1 0  9992,2 51147  53.2178 357.4731 0001288  59.9828 300.9659 15.36340520  3651,6835.079000000002,93.729,457.824,456.06300000000016,0.0
51147.0,STARLINK-3352,PAYLOAD,2022-03-17 06:00:00,15.35753522,0.0001384,53.2174,355.5277,61.223,85.079,-0.019962,-0.00655076,0.0,0 STARLINK-3352,1 51147U 22005AV  22076.25001157 -.00655076  00000-0 -19962-1 0  9994,2 51147  53.2174 355.5277 0001384  61.2230  85.0790 15.35753522 10273,6836.82,93.765,459.631,457.739,0.0
51147.0,STARLINK-3352,PAYLOAD,2022-03-17 14:00:01,15.35288539,0.0001369,53.2175,353.9695,66.9033,123.0508,-0.020344,-0.00657508,0.0,0 STARLINK-3352,1 51147U 22005AV  22076.58334491 -.00657508  00000-0 -20344-1 0  9998,2 51147  53.2175 353.9695 0001369  66.9033 123.0508 15.35288539  3662,6838.201,93.793,461.002,459.129,0.0
51147.0,STARLINK-3352,PAYLOAD,2022-03-17 22:00:00,15.34822658,0.0001406999999999,53.2177,352.4152,68.5872,164.4571,-0.020701,-0.00659008,0.0,0 STARLINK-3352,1 51147U 22005AV  22076.91667824 -.00659008  00000-0 -20701-1 0  9998,2 51147  53.2177 352.4152 0001407  68.5872 164.4571 15.34822658  3673,6839.584,93.822,462.412,460.487,0.0
51147.0,STARLINK-3352,PAYLOAD,2022-03-18 06:00:00,15.34355486,0.0001271,53.2173,350.8619,79.4074,196.1666,-0.020955,-0.00657304,0.0,0 STARLINK-3352,1 51147U 22005AV  22077.25001157 -.00657304  00000-0 -20955-1 0  9995,2 51147  53.2173 350.8619 0001271  79.4074 196.1666 15.34355486 10421,6840.973000000001,93.85,463.707,461.968,0.0
51147.0,STARLINK-3352,PAYLOAD,2022-03-18 14:00:01,15.33888144,0.0001262,53.2175,349.3071,64.6151,252.9302,-0.021243,-0.00656531,0.0,0 STARLINK-3352,1 51147U 22005AV  22077.58334491 -.00656531  00000-0 -21243-1 0  9993,2 51147  53.2175 349.3071 0001262  64.6151 252.9302 15.33888144  3678,6842.361999999999,93.879,465.091,463.364,0.0
